[{"OBJECT_NAME":"LILIUM-2","OBJECT_ID":"2025-276P","EPOCH":"2026-03-09T17:57:43.169184","MEAN_MOTION":15.17362397,"ECCENTRICITY":0.0005992,"INCLINATION":97.4225,"RA_OF_ASC_NODE":143.7942,"ARG_OF_PERICENTER":8.9383,"MEAN_ANOMALY":351.1956,"EPHEMERIS_TYPE":0,"CLASSIFICATION_TYPE":"U","NORAD_CAT_ID":66679,"ELEMENT_SET_NO":999,"REV_AT_EPOCH":1531,"BSTAR":0.00024211836,"MEAN_MOTION_DOT":4.769e-5,"MEAN_MOTION_DDOT":0},{"OBJECT_NAME":"CONNECTA IOT-15","OBJECT_ID":"2026-004AR","EPOCH":"2026-03-09T22:41:01.256352","MEAN_MOTION":15.16609971,"ECCENTRICITY":0.00018664,"INCLINATION":97.4573,"RA_OF_ASC_NODE":69.3558,"ARG_OF_PERICENTER":342.2914,"MEAN_ANOMALY":17.8254,"EPHEMERIS_TYPE":0,"CLASSIFICATION_TYPE":"U","NORAD_CAT_ID":67402,"ELEMENT_SET_NO":999,"REV_AT_EPOCH":868,"BSTAR":0.00024313202,"MEAN_MOTION_DOT":4.685e-5,"MEAN_MOTION_DDOT":0}]
